[{"OBJECT_NAME":"STARLINK-4590","OBJECT_ID":"2022-104U","EPOCH":"2026-03-09T16:35:23.694144","MEAN_MOTION":15.08834999,"ECCENTRICITY":0.00012377,"INCLINATION":53.2171,"RA_OF_ASC_NODE":234.2281,"ARG_OF_PERICENTER":91.6865,"MEAN_ANOMALY":268.4269,"EPHEMERIS_TYPE":0,"CLASSIFICATION_TYPE":"U","NORAD_CAT_ID":53606,"ELEMENT_SET_NO":999,"REV_AT_EPOCH":19563,"BSTAR":-5.199602e-6,"MEAN_MOTION_DOT":-3.71e-6,"MEAN_MOTION_DDOT":0},{"OBJECT_NAME":"SL-8 DEB","OBJECT_ID":"1976-098E","EPOCH":"2026-03-09T08:07:12.416160","MEAN_MOTION":15.06605169,"ECCENTRICITY":0.00102283,"INCLINATION":74.028,"RA_OF_ASC_NODE":26.283,"ARG_OF_PERICENTER":218.296,"MEAN_ANOMALY":294.2383,"EPHEMERIS_TYPE":0,"CLASSIFICATION_TYPE":"U","NORAD_CAT_ID":18504,"ELEMENT_SET_NO":999,"REV_AT_EPOCH":18055,"BSTAR":0.0011587434,"MEAN_MOTION_DOT":0.00017191,"MEAN_MOTION_DDOT":0}]
